ONEWEB-0551             
1 56053U 23043H   23269.55225361 -.00000081  00000+0 -24805-3 0  9994
2 56053  87.8943  97.2661 0001908  80.3086 279.8260 13.15546611 25626
ONEWEB-0552             
1 56054U 23043J   23269.49612068  .00020708  00000+0  50067-1 0  9995
2 56054  87.9177  82.0403 0002250  86.4929 273.6462 13.21726473 26829
ONEWEB-0553             
1 56055U 23043K   23269.58335648 -.01552033  00000+0 -23685+0 0  9990
2 56055  86.9677  71.4666 0004137  76.7547 350.8738 14.77621370  5734
ONEWEB-0554             
1 56056U 23043L   23269.58335648 -.01565192  00000+0 -24925+0 0  9999
2 56056  86.9691  71.3308 0001283 149.3507 206.3037 14.75863947  5727
ONEWEB-0555             
1 56057U 23043M   23269.58335648 -.01582752  00000+0 -24251+0 0  9993
2 56057  86.9637  71.3884 0002765 129.6850  94.0150 14.77534227  5642
ONEWEB-0557             
1 56058U 23043N   23269.58335648 -.01565380  00000+0 -25283+0 0  9998
2 56058  86.9711  71.3228 0002188 102.8909 325.2682 14.75255673  5715
ONEWEB-0558             
1 56059U 23043P   23269.48979195  .00000070  00000+0  13853-3 0  9990
2 56059  87.9157  82.0187 0002153  77.7864 282.3511 13.21824719 26839
ONEWEB-0559             
1 56060U 23043Q   23269.55289377  .00001036  00000+0  24776-2 0  9994
2 56060  87.9181  82.0065 0002552  93.0760 267.0666 13.21822788 26859
ONEWEB-0566             
1 56061U 23043R   23269.54651242  .00000019  00000+0  13616-4 0  9991
2 56061  87.9173  82.0108 0002367  75.8575 284.2822 13.21819348 26836
ONEWEB-0568             
1 56062U 23043S   23269.58335648 -.01546879  00000+0 -22743+0 0  9993
2 56062  86.9626  71.5225 0003077 119.9153  28.6035 14.79187328  5724
ONEWEB-0574             
1 56063U 23043T   23269.54026141 -.00000015  00000+0 -67617-4 0  9995
2 56063  87.9149  82.0075 0001656  82.1151 278.0171 13.21824297 26876
ONEWEB-0575             
1 56064U 23043U   23269.58335648 -.01557571  00000+0 -23060+0 0  9999
2 56064  86.9606  71.5270 0002533  87.3120  17.5007 14.78923807  5750
ONEWEB-0576             
1 56065U 23043V   23269.58335648 -.01556736  00000+0 -23740+0 0  9997
2 56065  86.9663  71.4437 0003709 102.5257 105.2290 14.77665579  5729
ONEWEB-0577             
1 56066U 23043W   23269.58335648 -.01561864  00000+0 -22530+0 0  9992
2 56066  86.9554  71.6066 0001974 146.8470  74.4825 14.80028450  5668
ONEWEB-0578             
1 56067U 23043X   23269.52762505 -.00001542  00000+0 -37652-2 0  9998
2 56067  87.9147  82.0050 0001549  87.6379 272.4932 13.21831261 26832
ONEWEB-0579             
1 56068U 23043Y   23269.44352589 -.00000110  00000+0 -29808-3 0  9992
2 56068  87.9173  82.0253 0001968  98.1751 261.9606 13.21822970 26831
ONEWEB-0581             
1 56069U 23043Z   23269.58335648 -.01552313  00000+0 -23743+0 0  9991
2 56069  86.9698  71.4740 0004533  95.2958  70.3426 14.77523118  5725
ONEWEB-0609             
1 56070U 23043AA  23269.58181305  .00000124  00000+0  29555-3 0  9998
2 56070  87.8917  97.2686 0001633  81.9559 278.1757 13.15549540 25661
ONEWEB-0613             
1 56071U 23043AB  23269.57758920  .00000091  00000+0  20824-3 0  9994
2 56071  87.8940  97.2380 0002085  84.0509 276.0859 13.15545846 25665
ONEWEB-0630             
1 56072U 23043AC  23269.57336421 -.00000423  00000+0 -11570-2 0  9991
2 56072  87.8941  97.2395 0002498  73.2450 286.8954 13.15548222 25651
ONEWEB-0632             
1 56073U 23043AD  23269.56913771  .00000004  00000+0 -23088-4 0  9993
2 56073  87.8942  97.2548 0002226 100.0504 260.0878 13.15545780 25656
ONEWEB-0633             
1 56074U 23043AE  23269.56493807  .00000346  00000+0  88513-3 0  9998
2 56074  87.8932  97.2520 0002212  73.8375 286.2998 13.15545161 25638
ONEWEB-0634             
1 56075U 23043AF  23269.54688360 -.00000069  00000+0 -21850-3 0  9992
2 56075  87.8936  97.2497 0001486  69.5645 290.5645 13.15550792 25622
ONEWEB-0635             
1 56076U 23043AG  23269.53955247  .00000021  00000+0  22559-4 0  9997
2 56076  87.8918  97.3272 0002105 100.9213 259.2154 13.15552377 25656
ONEWEB-0636             
1 56077U 23043AH  23269.60715901  .00000161  00000+0  39350-3 0  9998
2 56077  87.8922  97.2755 0001971 101.9094 258.2257 13.15553574 25647
ONEWEB-0637             
1 56078U 23043AJ  23269.60292145 -.00001922  00000+0 -51402-2 0  9998
2 56078  87.8948  97.2326 0001758 100.4302 259.7026 13.15562437 25669
ONEWEB-0647             
1 56079U 23043AK  23269.52266836  .00001560  00000+0  41089-2 0  9994
2 56079  87.8944  97.2742 0002190  95.2626 264.8755 13.15545782 25647
ONEWEB-0651             
1 56080U 23043AL  23269.59447595  .00000164  00000+0  40210-3 0  9991
2 56080  87.8941  97.2342 0001667 103.0266 257.1050 13.15550914 26858
ONEWEB-0718             
1 56081U 23043AM  23269.51419613  .00000203  00000+0  50493-3 0  9992
2 56081  87.8870  97.2819 0001391  62.8224 297.3047 13.15552388 25655
GSLV R/B                
1 56082U 23043AN  23269.48716871  .00046353  00000+0  93094-3 0  9995
2 56082  87.4073  77.1604 0022254  32.3745 327.8873 15.46206028 28402
ONEWEB-0561             
1 56710U 23068A   23269.60502707  .00000095  00000+0  16386-3 0  9997
2 56710  88.2877 106.0803 0002553  92.5863 267.5570 13.34307062 17972
ONEWEB-0668             
1 56711U 23068B   23269.53030143  .00002411  00000+0  32630-3 0  9994
2 56711  86.7176  87.5151 0016910 126.0492 234.2298 14.78491194 19216
ONEWEB-0676             
1 56712U 23068C   23269.47470780  .00002347  00000+0  31836-3 0  9998
2 56712  86.7131  87.4793 0016860 127.9594 232.3153 14.78370966 19207
ONEWEB-0677             
1 56713U 23068D   23269.60435099 -.00010481  00000+0 -20955-1 0  9996
2 56713  88.3104 103.9206 0002820  89.3582 270.7883 13.34711960 18151
ONEWEB-0678             
1 56714U 23068E   23269.55988762 -.00014973  00000+0 -32759-1 0  9996
2 56714  87.9896  97.1097 0006104 146.6479 213.5044 13.28768713 18502
ONEWEB-0679             
1 56715U 23068F   23269.52682344  .00002328  00000+0  31458-3 0  9997
2 56715  86.7170  87.5053 0017016 126.4198 233.8595 14.78526305 19218
ONEWEB-0680             
1 56716U 23068G   23269.58335648 -.00948251  00000+0 -19118+0 0  9997
2 56716  86.8318  87.5555 0015927 131.8775 203.9771 14.64319119  5690
ONEWEB-0681             
1 56717U 23068H   23269.58335648 -.00952402  00000+0 -20119+0 0  9994
2 56717  86.8423  87.6223 0014572 129.4730 327.5219 14.62253325  5683
ONEWEB-0682             
1 56718U 23068J   23269.56628739 -.00004003  00000+0 -87863-2 0  9996
2 56718  87.9759  96.5784 0001721  91.0830 269.0505 13.28636127 18606
ONEWEB-0683             
1 56719U 23068K   23269.55065240 -.00000538  00000+0 -12104-2 0  9993
2 56719  87.9862  96.5355 0001851 111.9628 248.1706 13.28363485 18578
ONEWEB-0684             
1 56720U 23068L   23269.58335648 -.00022026  00000+0 -52944-1 0  9991
2 56720  87.8143  97.4704 0001494  49.8016 112.4878 13.22520858 19175
ONEWEB-0686             
1 56721U 23068M   23269.54974476  .00002465  00000+0  33578-3 0  9993
2 56721  86.7146  87.4748 0016200 128.2597 232.0084 14.78238215 19219
ONEWEB-0694             
1 56722U 23068N   23269.55335569  .00002212  00000+0  30112-3 0  9990
2 56722  86.7186  87.5433 0016215 126.5351 233.7366 14.78201989 19210
ONEWEB-0696             
1 56723U 23068P   23269.56865560  .00003473  00000+0  75376-2 0  9991
2 56723  88.0009  96.7511 0004458  94.0046 266.1602 13.28853816 18538
ONEWEB-0703             
1 56724U 23068Q   23269.58335648 -.00025551  00000+0 -61639-1 0  9992
2 56724  87.8551  97.4082 0002563 100.4106 218.0865 13.22298721  5369
ONEWEB-0721             
1 56725U 23068R   23269.54964014  .00002939  00000+0  35647-3 0  9999
2 56725  86.6716  86.5790 0012658 123.3232 236.9205 14.83195495 19268
